{"type": "FeatureCollection", "features": [ {"type": "Feature", "properties": {"norad_id": 35217, "name": "FENGYUN 1C DEB", "group": "fengyun-1c-debris", "lat": 77.97726870958772, "lon": 159.07824448393524, "alt_km": 1226.9576770414296, "timestamp": "2025-12-09T11:33:55.087623+00:00", "meta": {"OBJECT_NAME": "FENGYUN 1C DEB", "OBJECT_ID": "1999-025DPZ", "EPOCH": "2025-12-05T23:58:33.093696", "MEAN_MOTION": 13.57450047, "ECCENTRICITY": 0.03033796, "INCLINATION": 101.8756, "RA_OF_ASC_NODE": 253.7635, "ARG_OF_PERICENTER": 311.644, "MEAN_ANOMALY": 45.907, "EPHEMERIS_TYPE": 0, "CLASSIFICATION_TYPE": "U", "NORAD_CAT_ID": 35217, "ELEMENT_SET_NO": 999, "REV_AT_EPOCH": 61128, "BSTAR": 0.0049764515, "MEAN_MOTION_DOT": 4.747e-05, "MEAN_MOTION_DDOT": 0}, "tle": {"line1": "1 35217U 99025DPZ 25339.99899414  .00004747  00000+0  49765-2 0  9992", "line2": "2 35217 101.8756 253.7635 0303379 311.6440  45.9070 13.57450047611282"}}, "geometry": {"type": "Point", "coordinates": [159.07824448393524, 77.97726870958772]}}, {"type": "Feature", "properties": {"norad_id": 35220, "name": "FENGYUN 1C DEB", "group": "fengyun-1c-debris", "lat": -46.12189878151938, "lon": -136.07944399529785, "alt_km": 823.4742126168494, "timestamp": "2025-12-09T11:33:55.087633+00:00", "meta": {"OBJECT_NAME": "FENGYUN 1C DEB", "OBJECT_ID": "1999-025DQC", "EPOCH": "2025-12-09T03:44:46.125024", "MEAN_MOTION": 14.22518775, "ECCENTRICITY": 0.0043432, "INCLINATION": 99.0273, "RA_OF_ASC_NODE": 53.1031, "ARG_OF_PERICENTER": 317.8282, "MEAN_ANOMALY": 41.9557, "EPHEMERIS_TYPE": 0, "CLASSIFICATION_TYPE": "U", "NORAD_CAT_ID": 35220, "ELEMENT_SET_NO": 999, "REV_AT_EPOCH": 63132, "BSTAR": 0.0018808, "MEAN_MOTION_DOT": 4.193e-05, "MEAN_MOTION_DDOT": 0}, "tle": {"line1": "1 35220U 99025DQC 25343.15608941  .00004193  00000+0  18808-2 0  9991", "line2": "2 35220  99.0273  53.1031 0043432 317.8282  41.9557 14.22518775631322"}}, "geometry": {"type": "Point", "coordinates": [-136.07944399529785, -46.12189878151938]}}, {"type": "Feature", "properties": {"norad_id": 35223, "name": "FENGYUN 1C DEB", "group": "fengyun-1c-debris", "lat": 61.357765303988494, "lon": 162.3535856395508, "alt_km": 664.2385891668373, "timestamp": "2025-12-09T11:33:55.087643+00:00", "meta": {"OBJECT_NAME": "FENGYUN 1C DEB", "OBJECT_ID": "1999-025DQF", "EPOCH": "2025-12-07T21:56:42.228096", "MEAN_MOTION": 14.88831664, "ECCENTRICITY": 0.01290174, "INCLINATION": 98.972, "RA_OF_ASC_NODE": 323.7649, "ARG_OF_PERICENTER": 341.9743, "MEAN_ANOMALY": 17.6916, "EPHEMERIS_TYPE": 0, "CLASSIFICATION_TYPE": "U", "NORAD_CAT_ID": 35223, "ELEMENT_SET_NO": 999, "REV_AT_EPOCH": 93810, "BSTAR": 0.0012358493, "MEAN_MOTION_DOT": 0.0001347, "MEAN_MOTION_DDOT": 0}, "tle": {"line1": "1 35223U 99025DQF 25341.91437764  .00013470  00000+0  12358-2 0  9991", "line2": "2 35223  98.9720 323.7649 0129017 341.9743  17.6916 14.88831664938107"}}, "geometry": {"type": "Point", "coordinates": [162.3535856395508, 61.357765303988494]}}, {"type": "Feature", "properties": {"norad_id": 35229, "name": "FENGYUN 1C DEB", "group": "fengyun-1c-debris", "lat": -21.054732621065433, "lon": -120.877063630949, "alt_km": 666.3896748850948, "timestamp": "2025-12-09T11:33:55.087654+00:00", "meta": {"OBJECT_NAME": "FENGYUN 1C DEB", "OBJECT_ID": "1999-025DQM", "EPOCH": "2025-12-08T23:08:00.019104", "MEAN_MOTION": 14.60344709, "ECCENTRICITY": 0.0047489, "INCLINATION": 98.4583, "RA_OF_ASC_NODE": 61.8783, "ARG_OF_PERICENTER": 226.2462, "MEAN_ANOMALY": 133.4802, "EPHEMERIS_TYPE": 0, "CLASSIFICATION_TYPE": "U", "NORAD_CAT_ID": 35229, "ELEMENT_SET_NO": 999, "REV_AT_EPOCH": 64451, "BSTAR": 0.006925, "MEAN_MOTION_DOT": 0.00034127, "MEAN_MOTION_DDOT": 0}, "tle": {"line1": "1 35229U 99025DQM 25342.96388911  .00034127  00000+0  69250-2 0  9997", "line2": "2 35229  98.4583  61.8783 0047489 226.2462 133.4802 14.60344709644518"}}, "geometry": {"type": "Point", "coordinates": [-120.877063630949, -21.054732621065433]}}, {"type": "Feature", "properties": {"norad_id": 35231, "name": "FENGYUN 1C DEB", "group": "fengyun-1c-debris", "lat": -12.243107693518352, "lon": 28.631020925647356, "alt_km": 855.9206880159691, "timestamp": "2025-12-09T11:33:55.087664+00:00", "meta": {"OBJECT_NAME": "FENGYUN 1C DEB", "OBJECT_ID": "1999-025DQP", "EPOCH": "2025-12-08T13:33:16.551360", "MEAN_MOTION": 14.14527899, "ECCENTRICITY": 0.0038029, "INCLINATION": 98.7211, "RA_OF_ASC_NODE": 25.8267, "ARG_OF_PERICENTER": 96.7145, "MEAN_ANOMALY": 263.8358, "EPHEMERIS_TYPE": 0, "CLASSIFICATION_TYPE": "U", "NORAD_CAT_ID": 35231, "ELEMENT_SET_NO": 999, "REV_AT_EPOCH": 91443, "BSTAR": 4.8417e-05, "MEAN_MOTION_DOT": 5.1e-07, "MEAN_MOTION_DDOT": 0}, "tle": {"line1": "1 35231U 99025DQP 25342.56477490  .00000051  00000+0  48417-4 0  9990", "line2": "2 35231  98.7211  25.8267 0038029  96.7145 263.8358 14.14527899914434"}}, "geometry": {"type": "Point", "coordinates": [28.631020925647356, -12.243107693518352]}}, {"type": "Feature", "properties": {"norad_id": 35233, "name": "FENGYUN 1C DEB", "group": "fengyun-1c-debris", "lat": 73.67387794598942, "lon": -65.6705832693222, "alt_km": 774.1258650680138, "timestamp": "2025-12-09T11:33:55.087674+00:00", "meta": {"OBJECT_NAME": "FENGYUN 1C DEB", "OBJECT_ID": "1999-025DQR", "EPOCH": "2025-12-08T05:14:28.388832", "MEAN_MOTION": 14.4177986, "ECCENTRICITY": 0.00412391, "INCLINATION": 98.7708, "RA_OF_ASC_NODE": 81.2245, "ARG_OF_PERICENTER": 274.5532, "MEAN_ANOMALY": 114.9681, "EPHEMERIS_TYPE": 0, "CLASSIFICATION_TYPE": "U", "NORAD_CAT_ID": 35233, "ELEMENT_SET_NO": 999, "REV_AT_EPOCH": 91111, "BSTAR": 0.002497777, "MEAN_MOTION_DOT": 8.202e-05, "MEAN_MOTION_DDOT": 0}, "tle": {"line1": "1 35233U 99025DQR 25342.21838413  .00008202  00000+0  24978-2 0  9990", "line2": "2 35233  98.7708  81.2245 0041239 274.5532 114.9681 14.41779860911116"}}, "geometry": {"type": "Point", "coordinates": [-65.6705832693222, 73.67387794598942]}}, {"type": "Feature", "properties": {"norad_id": 35234, "name": "FENGYUN 1C DEB", "group": "fengyun-1c-debris", "lat": -48.344006367062946, "lon": 20.652247761959273, "alt_km": 626.6342584599897, "timestamp": "2025-12-09T11:33:55.087684+00:00", "meta": {"OBJECT_NAME": "FENGYUN 1C DEB", "OBJECT_ID": "1999-025DQS", "EPOCH": "2025-12-08T19:24:00.899136", "MEAN_MOTION": 14.65517814, "ECCENTRICITY": 0.00998032, "INCLINATION": 98.0678, "RA_OF_ASC_NODE": 10.8162, "ARG_OF_PERICENTER": 275.0297, "MEAN_ANOMALY": 83.952, "EPHEMERIS_TYPE": 0, "CLASSIFICATION_TYPE": "U", "NORAD_CAT_ID": 35234, "ELEMENT_SET_NO": 999, "REV_AT_EPOCH": 94298, "BSTAR": 0.00094774779, "MEAN_MOTION_DOT": 5.479e-05, "MEAN_MOTION_DDOT": 0}, "tle": {"line1": "1 35234U 99025DQS 25342.80834374  .00005479  00000+0  94775-3 0  9994", "line2": "2 35234  98.0678  10.8162 0099803 275.0297  83.9520 14.65517814942987"}}, "geometry": {"type": "Point", "coordinates": [20.652247761959273, -48.344006367062946]}}, {"type": "Feature", "properties": {"norad_id": 35239, "name": "FENGYUN 1C DEB", "group": "fengyun-1c-debris", "lat": 25.14078344484121, "lon": 139.88821486095074, "alt_km": 833.0043488227893, "timestamp": "2025-12-09T11:33:55.087697+00:00", "meta": {"OBJECT_NAME": "FENGYUN 1C DEB", "OBJECT_ID": "1999-025DQX", "EPOCH": "2025-12-08T21:25:00.742080", "MEAN_MOTION": 13.69204072, "ECCENTRICITY": 0.0229828, "INCLINATION": 99.2631, "RA_OF_ASC_NODE": 143.7136, "ARG_OF_PERICENTER": 20.3789, "MEAN_ANOMALY": 340.6348, "EPHEMERIS_TYPE": 0, "CLASSIFICATION_TYPE": "U", "NORAD_CAT_ID": 35239, "ELEMENT_SET_NO": 999, "REV_AT_EPOCH": 58078, "BSTAR": 0.0011463, "MEAN_MOTION_DOT": 1.153e-05, "MEAN_MOTION_DDOT": 0}, "tle": {"line1": "1 35239U 99025DQX 25342.89236970  .00001153  00000+0  11463-2 0  9993", "line2": "2 35239  99.2631 143.7136 0229828  20.3789 340.6348 13.69204072580789"}}, "geometry": {"type": "Point", "coordinates": [139.88821486095074, 25.14078344484121]}}, {"type": "Feature", "properties": {"norad_id": 35240, "name": "FENGYUN 1C DEB", "group": "fengyun-1c-debris", "lat": -55.95426242770926, "lon": -40.17727190985512, "alt_km": 847.1391851456428, "timestamp": "2025-12-09T11:33:55.087708+00:00", "meta": {"OBJECT_NAME": "FENGYUN 1C DEB", "OBJECT_ID": "1999-025DQY", "EPOCH": "2025-12-07T21:01:45.903936", "MEAN_MOTION": 14.23240567, "ECCENTRICITY": 0.00458712, "INCLINATION": 99.3504, "RA_OF_ASC_NODE": 304.0042, "ARG_OF_PERICENTER": 165.9059, "MEAN_ANOMALY": 194.3409, "EPHEMERIS_TYPE": 0, "CLASSIFICATION_TYPE": "U", "NORAD_CAT_ID": 35240, "ELEMENT_SET_NO": 999, "REV_AT_EPOCH": 93095, "BSTAR": 0.0030168303, "MEAN_MOTION_DOT": 6.857e-05, "MEAN_MOTION_DDOT": 0}, "tle": {"line1": "1 35240U 99025DQY 25341.87622574  .00006857  00000+0  30168-2 0  9990", "line2": "2 35240  99.3504 304.0042 0045871 165.9059 194.3409 14.23240567930959"}}, "geometry": {"type": "Point", "coordinates": [-40.17727190985512, -55.95426242770926]}}, {"type": "Feature", "properties": {"norad_id": 35241, "name": "FENGYUN 1C DEB", "group": "fengyun-1c-debris", "lat": 45.70229997894683, "lon": 101.66183566581549, "alt_km": 872.784131578137, "timestamp": "2025-12-09T11:33:55.087719+00:00", "meta": {"OBJECT_NAME": "FENGYUN 1C DEB", "OBJECT_ID": "1999-025DQZ", "EPOCH": "2025-11-30T05:56:44.334240", "MEAN_MOTION": 14.01843685, "ECCENTRICITY": 0.01367336, "INCLINATION": 98.628, "RA_OF_ASC_NODE": 263.9706, "ARG_OF_PERICENTER": 244.1586, "MEAN_ANOMALY": 114.5426, "EPHEMERIS_TYPE": 0, "CLASSIFICATION_TYPE": "U", "NORAD_CAT_ID": 35241, "ELEMENT_SET_NO": 999, "REV_AT_EPOCH": 87431, "BSTAR": 0.001716208, "MEAN_MOTION_DOT": 2.791e-05, "MEAN_MOTION_DDOT": 0}, "tle": {"line1": "1 35241U 99025DQZ 25334.24773535  .00002791  00000+0  17162-2 0  9990", "line2": "2 35241  98.6280 263.9706 0136733 244.1586 114.5426 14.01843685874312"}}, "geometry": {"type": "Point", "coordinates": [101.66183566581549, 45.70229997894683]}}]}